{"type": "FeatureCollection", "features": [ {"type": "Feature", "properties": {"norad_id": 66499, "name": "STARLINK-35816", "group": "last-30-days", "lat": 21.946917352889773, "lon": 176.25089200694822, "alt_km": 413.1169930833257, "timestamp": "2025-12-08T08:58:59.556592+00:00", "meta": {"OBJECT_NAME": "STARLINK-35816", "OBJECT_ID": "2025-263Q", "EPOCH": "2025-12-07T22:00:03.000096", "MEAN_MOTION": 15.51848973, "ECCENTRICITY": 0.00012822, "INCLINATION": 43.0002, "RA_OF_ASC_NODE": 153.3089, "ARG_OF_PERICENTER": 266.9683, "MEAN_ANOMALY": 88.1645, "EPHEMERIS_TYPE": 0, "CLASSIFICATION_TYPE": "U", "NORAD_CAT_ID": 66499, "ELEMENT_SET_NO": 999, "REV_AT_EPOCH": 486, "BSTAR": -0.029662332, "MEAN_MOTION_DOT": -0.01634768, "MEAN_MOTION_DDOT": 0}, "tle": {"line1": "1 66499U 25263Q   25341.91670139 -.01634768  00000+0 -29662-1 0  9995", "line2": "2 66499  43.0002 153.3089 0001282 266.9683  88.1645 15.51848973  4868"}}, "geometry": {"type": "Point", "coordinates": [176.25089200694822, 21.946917352889773]}}, {"type": "Feature", "properties": {"norad_id": 66500, "name": "STARLINK-35894", "group": "last-30-days", "lat": -9.201082668059433, "lon": 140.73429919990406, "alt_km": 415.2790528763262, "timestamp": "2025-12-08T08:58:59.556604+00:00", "meta": {"OBJECT_NAME": "STARLINK-35894", "OBJECT_ID": "2025-263R", "EPOCH": "2025-12-07T22:00:03.000096", "MEAN_MOTION": 15.50555835, "ECCENTRICITY": 0.0001216, "INCLINATION": 43.0005, "RA_OF_ASC_NODE": 153.4219, "ARG_OF_PERICENTER": 309.9026, "MEAN_ANOMALY": 359.2242, "EPHEMERIS_TYPE": 0, "CLASSIFICATION_TYPE": "U", "NORAD_CAT_ID": 66500, "ELEMENT_SET_NO": 999, "REV_AT_EPOCH": 486, "BSTAR": 0.00014038292, "MEAN_MOTION_DOT": 7.896e-05, "MEAN_MOTION_DDOT": 0}, "tle": {"line1": "1 66500U 25263R   25341.91670139  .00007896  00000+0  14038-3 0  9994", "line2": "2 66500  43.0005 153.4219 0001216 309.9026 359.2242 15.50555835  4862"}}, "geometry": {"type": "Point", "coordinates": [140.73429919990406, -9.201082668059433]}}, {"type": "Feature", "properties": {"norad_id": 66501, "name": "STARLINK-35897", "group": "last-30-days", "lat": 23.11293990984436, "lon": 177.8843019328361, "alt_km": 412.80310575128624, "timestamp": "2025-12-08T08:58:59.556615+00:00", "meta": {"OBJECT_NAME": "STARLINK-35897", "OBJECT_ID": "2025-263S", "EPOCH": "2025-12-07T22:00:03.000096", "MEAN_MOTION": 15.51857191, "ECCENTRICITY": 0.0001554, "INCLINATION": 43.0001, "RA_OF_ASC_NODE": 153.3041, "ARG_OF_PERICENTER": 281.7895, "MEAN_ANOMALY": 75.2574, "EPHEMERIS_TYPE": 0, "CLASSIFICATION_TYPE": "U", "NORAD_CAT_ID": 66501, "ELEMENT_SET_NO": 999, "REV_AT_EPOCH": 486, "BSTAR": -0.030194645, "MEAN_MOTION_DOT": -0.01661657, "MEAN_MOTION_DDOT": 0}, "tle": {"line1": "1 66501U 25263S   25341.91670139 -.01661657  00000+0 -30195-1 0  9999", "line2": "2 66501  43.0001 153.3041 0001554 281.7895  75.2574 15.51857191  4861"}}, "geometry": {"type": "Point", "coordinates": [177.8843019328361, 23.11293990984436]}}, {"type": "Feature", "properties": {"norad_id": 66502, "name": "STARLINK-35922", "group": "last-30-days", "lat": 26.522675602274116, "lon": -177.00737361046038, "alt_km": 412.55040311296034, "timestamp": "2025-12-08T08:58:59.556625+00:00", "meta": {"OBJECT_NAME": "STARLINK-35922", "OBJECT_ID": "2025-263T", "EPOCH": "2025-12-07T22:00:03.000096", "MEAN_MOTION": 15.5185071, "ECCENTRICITY": 0.00014724, "INCLINATION": 43.0003, "RA_OF_ASC_NODE": 153.289, "ARG_OF_PERICENTER": 268.5354, "MEAN_ANOMALY": 94.263, "EPHEMERIS_TYPE": 0, "CLASSIFICATION_TYPE": "U", "NORAD_CAT_ID": 66502, "ELEMENT_SET_NO": 999, "REV_AT_EPOCH": 486, "BSTAR": -0.029675667, "MEAN_MOTION_DOT": -0.01635609, "MEAN_MOTION_DDOT": 0}, "tle": {"line1": "1 66502U 25263T   25341.91670139 -.01635609  00000+0 -29676-1 0  9990", "line2": "2 66502  43.0003 153.2890 0001472 268.5354  94.2630 15.51850710  4861"}}, "geometry": {"type": "Point", "coordinates": [-177.00737361046038, 26.522675602274116]}}, {"type": "Feature", "properties": {"norad_id": 66503, "name": "STARLINK-35917", "group": "last-30-days", "lat": 28.68017478918564, "lon": -173.45197514611658, "alt_km": 412.14692809653025, "timestamp": "2025-12-08T08:58:59.556637+00:00", "meta": {"OBJECT_NAME": "STARLINK-35917", "OBJECT_ID": "2025-263U", "EPOCH": "2025-12-07T22:00:03.000096", "MEAN_MOTION": 15.51863755, "ECCENTRICITY": 0.00015581, "INCLINATION": 43, "RA_OF_ASC_NODE": 153.2796, "ARG_OF_PERICENTER": 280.3977, "MEAN_ANOMALY": 86.2316, "EPHEMERIS_TYPE": 0, "CLASSIFICATION_TYPE": "U", "NORAD_CAT_ID": 66503, "ELEMENT_SET_NO": 999, "REV_AT_EPOCH": 486, "BSTAR": -0.030427131, "MEAN_MOTION_DOT": -0.01673483, "MEAN_MOTION_DDOT": 0}, "tle": {"line1": "1 66503U 25263U   25341.91670139 -.01673483  00000+0 -30427-1 0  9999", "line2": "2 66503  43.0000 153.2796 0001558 280.3977  86.2316 15.51863755  4867"}}, "geometry": {"type": "Point", "coordinates": [-173.45197514611658, 28.68017478918564]}}, {"type": "Feature", "properties": {"norad_id": 66504, "name": "STARLINK-35916", "group": "last-30-days", "lat": -41.74292657732434, "lon": 78.53962832837102, "alt_km": 446.26115551715066, "timestamp": "2025-12-08T08:58:59.556648+00:00", "meta": {"OBJECT_NAME": "STARLINK-35916", "OBJECT_ID": "2025-263V", "EPOCH": "2025-12-07T22:00:03.000096", "MEAN_MOTION": 15.40593216, "ECCENTRICITY": 0.00016933, "INCLINATION": 43.0004, "RA_OF_ASC_NODE": 154.4234, "ARG_OF_PERICENTER": 289.0663, "MEAN_ANOMALY": 332.3727, "EPHEMERIS_TYPE": 0, "CLASSIFICATION_TYPE": "U", "NORAD_CAT_ID": 66504, "ELEMENT_SET_NO": 999, "REV_AT_EPOCH": 486, "BSTAR": 0.002612097, "MEAN_MOTION_DOT": 0.00110006, "MEAN_MOTION_DDOT": 0}, "tle": {"line1": "1 66504U 25263V   25341.91670139  .00110006  00000+0  26121-2 0  9991", "line2": "2 66504  43.0004 154.4234 0001693 289.0663 332.3727 15.40593216  4861"}}, "geometry": {"type": "Point", "coordinates": [78.53962832837102, -41.74292657732434]}}, {"type": "Feature", "properties": {"norad_id": 66505, "name": "STARLINK-34766", "group": "last-30-days", "lat": 24.26640926707772, "lon": 179.55244923866522, "alt_km": 412.7554769112767, "timestamp": "2025-12-08T08:58:59.556658+00:00", "meta": {"OBJECT_NAME": "STARLINK-34766", "OBJECT_ID": "2025-263W", "EPOCH": "2025-12-07T22:00:03.000096", "MEAN_MOTION": 15.5185708, "ECCENTRICITY": 0.00016412, "INCLINATION": 43, "RA_OF_ASC_NODE": 153.2987, "ARG_OF_PERICENTER": 278.6561, "MEAN_ANOMALY": 80.3068, "EPHEMERIS_TYPE": 0, "CLASSIFICATION_TYPE": "U", "NORAD_CAT_ID": 66505, "ELEMENT_SET_NO": 999, "REV_AT_EPOCH": 486, "BSTAR": -0.030189289, "MEAN_MOTION_DOT": -0.0166143, "MEAN_MOTION_DDOT": 0}, "tle": {"line1": "1 66505U 25263W   25341.91670139 -.01661430  00000+0 -30189-1 0  9995", "line2": "2 66505  43.0000 153.2987 0001641 278.6561  80.3068 15.51857080  4866"}}, "geometry": {"type": "Point", "coordinates": [179.55244923866522, 24.26640926707772]}}, {"type": "Feature", "properties": {"norad_id": 66506, "name": "STARLINK-34765", "group": "last-30-days", "lat": 25.401155092803094, "lon": -178.74791164512186, "alt_km": 412.60531634807285, "timestamp": "2025-12-08T08:58:59.556668+00:00", "meta": {"OBJECT_NAME": "STARLINK-34765", "OBJECT_ID": "2025-263X", "EPOCH": "2025-12-07T22:00:03.000096", "MEAN_MOTION": 15.51857359, "ECCENTRICITY": 0.00015849, "INCLINATION": 43, "RA_OF_ASC_NODE": 153.2946, "ARG_OF_PERICENTER": 278.6023, "MEAN_ANOMALY": 82.2803, "EPHEMERIS_TYPE": 0, "CLASSIFICATION_TYPE": "U", "NORAD_CAT_ID": 66506, "ELEMENT_SET_NO": 999, "REV_AT_EPOCH": 486, "BSTAR": -0.030261239, "MEAN_MOTION_DOT": -0.01664968, "MEAN_MOTION_DDOT": 0}, "tle": {"line1": "1 66506U 25263X   25341.91670139 -.01664968  00000+0 -30261-1 0  9996", "line2": "2 66506  43.0000 153.2946 0001584 278.6023  82.2803 15.51857359  4868"}}, "geometry": {"type": "Point", "coordinates": [-178.74791164512186, 25.401155092803094]}}, {"type": "Feature", "properties": {"norad_id": 66507, "name": "STARLINK-34767", "group": "last-30-days", "lat": 27.615822567317224, "lon": -175.2433321267264, "alt_km": 412.3335285885405, "timestamp": "2025-12-08T08:58:59.556678+00:00", "meta": {"OBJECT_NAME": "STARLINK-34767", "OBJECT_ID": "2025-263Y", "EPOCH": "2025-12-07T22:00:03.000096", "MEAN_MOTION": 15.51849051, "ECCENTRICITY": 0.0001335, "INCLINATION": 43.0005, "RA_OF_ASC_NODE": 153.2837, "ARG_OF_PERICENTER": 269.1177, "MEAN_ANOMALY": 95.6, "EPHEMERIS_TYPE": 0, "CLASSIFICATION_TYPE": "U", "NORAD_CAT_ID": 66507, "ELEMENT_SET_NO": 999, "REV_AT_EPOCH": 486, "BSTAR": -0.029665472, "MEAN_MOTION_DOT": -0.01634951, "MEAN_MOTION_DDOT": 0}, "tle": {"line1": "1 66507U 25263Y   25341.91670139 -.01634951  00000+0 -29665-1 0  9992", "line2": "2 66507  43.0005 153.2837 0001335 269.1177  95.6000 15.51849051  4869"}}, "geometry": {"type": "Point", "coordinates": [-175.2433321267264, 27.615822567317224]}}, {"type": "Feature", "properties": {"norad_id": 66508, "name": "STARLINK-35608", "group": "last-30-days", "lat": 30.746669763576836, "lon": -169.7390546799738, "alt_km": 411.9385984026085, "timestamp": "2025-12-08T08:58:59.556692+00:00", "meta": {"OBJECT_NAME": "STARLINK-35608", "OBJECT_ID": "2025-263Z", "EPOCH": "2025-12-07T22:00:03.000096", "MEAN_MOTION": 15.51861666, "ECCENTRICITY": 0.00016335, "INCLINATION": 43.0001, "RA_OF_ASC_NODE": 153.2701, "ARG_OF_PERICENTER": 280.2836, "MEAN_ANOMALY": 90.1858, "EPHEMERIS_TYPE": 0, "CLASSIFICATION_TYPE": "U", "NORAD_CAT_ID": 66508, "ELEMENT_SET_NO": 999, "REV_AT_EPOCH": 486, "BSTAR": -0.030523381, "MEAN_MOTION_DOT": -0.01678148, "MEAN_MOTION_DDOT": 0}, "tle": {"line1": "1 66508U 25263Z   25341.91670139 -.01678148  00000+0 -30523-1 0  9994", "line2": "2 66508  43.0001 153.2701 0001633 280.2836  90.1858 15.51861666  4860"}}, "geometry": {"type": "Point", "coordinates": [-169.7390546799738, 30.746669763576836]}}]}